COMMENT,ORIGINATOR,NORAD_CAT_ID,OBJECT_NAME,OBJECT_TYPE,CLASSIFICATION_TYPE,INTLDES,EPOCH,EPOCH_MICROSECONDS,MEAN_MOTION,ECCENTRICITY,INCLINATION,RA_OF_ASC_NODE,ARG_OF_PERICENTER,MEAN_ANOMALY,EPHEMERIS_TYPE,ELEMENT_SET_NO,REV_AT_EPOCH,BSTAR,MEAN_MOTION_DOT,MEAN_MOTION_DDOT,FILE,TLE_LINE0,TLE_LINE1,TLE_LINE2,OBJECT_ID,OBJECT_NUMBER,SEMIMAJOR_AXIS,PERIOD,APOGEE,PERIGEE,DECAYED
GENERATED VIA SPACETRACK.ORG API,18 SPCS,57309,STARLINK-30163,PAYLOAD,U,23096V,2023-11-23 19:32:54,309408,15.02541122,0.00013,43.0033,90.1544,287.7702,72.2998,0,999,2082,0.00014863,0.00001805,0,4104120,0 STARLINK-30163,1 57309U 23096V   23327.81451747  .00001805  00000-0  14863-3 0  9997,2 57309  43.0033  90.1544 0001300 287.7702  72.2998 15.02541122 20821,2023-096V,57309,6937.201,95.838,559.968,558.164,1
GENERATED VIA SPACETRACK.ORG API,18 SPCS,57309,STARLINK-30163,PAYLOAD,U,23096V,2023-11-23 19:32:54,309408,15.02541122,0.00013,43.0033,90.1544,287.7702,72.2998,0,999,2079,0.00014863,0.00001805,0,4104310,0 STARLINK-30163,1 57309U 23096V   23327.81451747  .00001805  00000-0  14863-3 0  9997,2 57309  43.0033  90.1544 0001300 287.7702  72.2998 15.02541122 20797,2023-096V,57309,6937.201,95.838,559.968,558.164,1
GENERATED VIA SPACETRACK.ORG API,18 SPCS,57309,STARLINK-30163,PAYLOAD,U,23096V,2023-11-24 08:18:44,267616,15.02534475,0.0001043,43.0009,87.2681,311.4958,48.5794,0,999,2087,0.000074526,0.00000803,0,4104748,0 STARLINK-30163,1 57309U 23096V   23328.34634569  .00000803  00000-0  74526-4 0  9991,2 57309  43.0009  87.2681 0001043 311.4958  48.5794 15.02534475 20873,2023-096V,57309,6937.221,95.838,559.810,558.363,1
GENERATED VIA SPACETRACK.ORG API,18 SPCS,57309,STARLINK-30163,PAYLOAD,U,23096V,2023-11-24 13:05:55,504320,15.0253073,0.0001082,43.0026,86.1805,274.1487,85.9232,0,999,2093,0.000060826,0.00000618,0,4105170,0 STARLINK-30163,1 57309U 23096V   23328.54578130  .00000618  00000-0  60826-4 0  9996,2 57309  43.0026  86.1805 0001082 274.1487  85.9232 15.02530730 20932,2023-096V,57309,6937.233,95.838,559.848,558.347,1
GENERATED VIA SPACETRACK.ORG API,18 SPCS,57309,STARLINK-30163,PAYLOAD,U,23096V,2023-11-24 19:28:50,187936,15.02541739,0.0001308,43.003,84.7358,281.0911,78.9784,0,999,2097,0.00063162,0.0000834,0,4105877,0 STARLINK-30163,1 57309U 23096V   23328.81169199  .00008340  00000-0  63162-3 0  9992,2 57309  43.0030  84.7358 0001308 281.0911  78.9784 15.02541739 20973,2023-096V,57309,6937.199,95.838,559.971,558.156,1
GENERATED VIA SPACETRACK.ORG API,18 SPCS,57309,STARLINK-30163,PAYLOAD,U,23096V,2023-11-25 08:14:39,823008,15.02541758,0.0001329,43.0031,81.8455,285.039,75.0305,0,999,2105,0.00050628,0.00006643,0,4106483,0 STARLINK-30163,1 57309U 23096V   23329.34351647  .00006643  00000-0  50628-3 0  9999,2 57309  43.0031  81.8455 0001329 285.0390  75.0305 15.02541758 21056,2023-096V,57309,6937.199,95.838,559.986,558.142,1
GENERATED VIA SPACETRACK.ORG API,18 SPCS,57309,STARLINK-30163,PAYLOAD,U,23096V,2023-11-25 16:13:17,768640,15.0255786,0.0000675,43.0003,80.042,314.6188,45.46,0,999,2110,0.0007595,0.00010077,0,4106487,0 STARLINK-30163,1 57309U 23096V   23329.67590010  .00010077  00000-0  75950-3 0  9995,2 57309  43.0003  80.0420 0000675 314.6188  45.4600 15.02557860 21101,2023-096V,57309,6937.149,95.837,559.483,558.546,1
GENERATED VIA SPACETRACK.ORG API,18 SPCS,57309,STARLINK-30163,PAYLOAD,U,23096V,2023-11-26 11:22:01,132608,15.02556126,0.0001136,43.0034,75.7051,269.4222,90.649,0,999,2119,0.00035869,0.00004647,0,4107499,0 STARLINK-30163,1 57309U 23096V   23330.47362422  .00004647  00000-0  35869-3 0  9990,2 57309  43.0034  75.7051 0001136 269.4222  90.6490 15.02556126 21197,2023-096V,57309,6937.155,95.837,559.808,558.232,1
GENERATED VIA SPACETRACK.ORG API,18 SPCS,57309,STARLINK-30163,PAYLOAD,U,23096V,2023-11-26 12:57:44,665056,15.02559693,0.0001212,43.0035,75.3438,269.4461,90.6243,0,999,2123,0.000483,0.00006331,0,4107973,0 STARLINK-30163,1 57309U 23096V   23330.54010029  .00006331  00000-0  48300-3 0  9997,2 57309  43.0035  75.3438 0001212 269.4461  90.6243 15.02559693 21236,2023-096V,57309,6937.144,95.836,559.849,558.168,1
GENERATED VIA SPACETRACK.ORG API,18 SPCS,57309,STARLINK-30163,PAYLOAD,U,23096V,2023-11-26 17:44:55,400640,15.0256926,0.0001278,43.0036,74.2598,266.0258,94.0439,0,999,2126,0.0011994,0.0001605,0,4108592,0 STARLINK-30163,1 57309U 23096V   23330.73953010  .00016050  00000-0  11994-2 0  9991,2 57309  43.0036  74.2598 0001278 266.0258  94.0439 15.02569260 21260,2023-096V,57309,6937.114,95.836,559.866,558.093,1
GENERATED VIA SPACETRACK.ORG API,18 SPCS,57309,STARLINK-30163,PAYLOAD,U,23096V,2023-11-26 17:44:55,400640,15.0256926,0.0001278,43.0036,74.2598,266.0258,94.0439,0,999,2123,0.0011994,0.0001605,0,4108799,0 STARLINK-30163,1 57309U 23096V   23330.73953010  .00016050  00000-0  11994-2 0  9991,2 57309  43.0036  74.2598 0001278 266.0258  94.0439 15.02569260 21237,2023-096V,57309,6937.114,95.836,559.866,558.093,1
GENERATED VIA SPACETRACK.ORG API,18 SPCS,57309,STARLINK-30163,PAYLOAD,U,23096V,2023-11-27 11:17:57,826752,15.02501049,0.0001234,43.0014,70.2851,208.0271,152.0505,0,999,2134,-0.00038828,-0.0000544,0,4109254,0 STARLINK-30163,1 57309U 23096V   23331.47080818 -.00005440  00000-0 -38828-3 0  9999,2 57309  43.0014  70.2851 0001234 208.0271 152.0505 15.02501049 21346,2023-096V,57309,6937.324,95.840,560.045,558.333,1
GENERATED VIA SPACETRACK.ORG API,18 SPCS,57309,STARLINK-30163,PAYLOAD,U,23096V,2023-11-27 14:29:25,641600,15.02504466,0.0001189,43.0045,69.5667,257.8947,102.1762,0,999,2139,0.00017252,0.00002126,0,4109692,0 STARLINK-30163,1 57309U 23096V   23331.60376900  .00002126  00000-0  17252-3 0  9998,2 57309  43.0045  69.5667 0001189 257.8947 102.1762 15.02504466 21399,2023-096V,57309,6937.314,95.840,560.003,558.354,1
GENERATED VIA SPACETRACK.ORG API,18 SPCS,57309,STARLINK-30163,PAYLOAD,U,23096V,2023-11-27 17:40:53,300928,15.02506416,0.0001355,43.0043,68.8439,249.0927,110.977,0,999,2141,0.0015066,0.00020191,0,4110225,0 STARLINK-30163,1 57309U 23096V   23331.73672802  .00020191  00000-0  15066-2 0  9994,2 57309  43.0043  68.8439 0001355 249.0927 110.9770 15.02506416 21418,2023-096V,57309,6937.308,95.840,560.113,558.233,1
GENERATED VIA SPACETRACK.ORG API,18 SPCS,57309,STARLINK-30163,PAYLOAD,U,23096V,2023-11-27 17:40:53,300928,15.02506416,0.0001355,43.0043,68.8439,249.0927,110.977,0,999,2138,0.0015066,0.00020191,0,4110506,0 STARLINK-30163,1 57309U 23096V   23331.73672802  .00020191  00000-0  15066-2 0  9994,2 57309  43.0043  68.8439 0001355 249.0927 110.9770 15.02506416 21384,2023-096V,57309,6937.308,95.840,560.113,558.233,1
GENERATED VIA SPACETRACK.ORG API,18 SPCS,57309,STARLINK-30163,PAYLOAD,U,23096V,2023-11-28 11:13:53,378688,15.02572728,0.0001344,43.0041,64.8699,256.3727,103.6965,0,999,2149,0.002794,0.00037779,0,4111045,0 STARLINK-30163,1 57309U 23096V   23332.46797892  .00037779  00000-0  27940-2 0  9996,2 57309  43.0041  64.8699 0001344 256.3727 103.6965 15.02572728 21499,2023-096V,57309,6937.103,95.836,559.901,558.036,1
GENERATED VIA SPACETRACK.ORG API,18 SPCS,57309,STARLINK-30163,PAYLOAD,U,23096V,2023-11-28 14:25:20,389152,15.0258453,0.000134,43.0042,64.1476,257.1714,102.8979,0,999,2154,0.0028346,0.00038347,0,4111489,0 STARLINK-30163,1 57309U 23096V   23332.60093043  .00038347  00000-0  28346-2 0  9992,2 57309  43.0042  64.1476 0001340 257.1714 102.8979 15.02584530 21543,2023-096V,57309,6937.067,95.835,559.862,558.003,1
GENERATED VIA SPACETRACK.ORG API,18 SPCS,57309,STARLINK-30163,PAYLOAD,U,23096V,2023-11-28 16:01:03,857664,15.02590419,0.000136,43.0042,63.7864,257.964,102.105,0,999,2155,0.0028452,0.00038498,0,4112264,0 STARLINK-30163,1 57309U 23096V   23332.66740576  .00038498  00000-0  28452-2 0  9993,2 57309  43.0042  63.7864 0001360 257.9640 102.1050 15.02590419 21554,2023-096V,57309,6937.049,95.834,559.857,557.971,1
GENERATED VIA SPACETRACK.ORG API,18 SPCS,57309,STARLINK-30163,PAYLOAD,U,23096V,2023-11-29 06:22:37,270560,15.02557167,0.0000812,43.0026,60.5332,249.0841,110.9914,0,999,2161,0.001383,0.00018538,0,4112950,0 STARLINK-30163,1 57309U 23096V   23333.26570915  .00018538  00000-0  13830-2 0  9995,2 57309  43.0026  60.5332 0000812 249.0841 110.9914 15.02557167 21613,2023-096V,57309,6937.151,95.837,559.580,558.453,1
GENERATED VIA SPACETRACK.ORG API,18 SPCS,57309,STARLINK-30163,PAYLOAD,U,23096V,2023-11-29 06:22:37,270560,15.02557167,0.0000812,43.0026,60.5332,249.0841,110.9914,0,999,2164,0.001383,0.00018538,0,4113103,0 STARLINK-30163,1 57309U 23096V   23333.26570915  .00018538  00000-0  13830-2 0  9995,2 57309  43.0026  60.5332 0000812 249.0841 110.9914 15.02557167 21646,2023-096V,57309,6937.151,95.837,559.580,558.453,1
GENERATED VIA SPACETRACK.ORG API,18 SPCS,57309,STARLINK-30163,PAYLOAD,U,23096V,2023-11-29 17:32:42,950688,15.02555061,0.0001305,43.0037,58.0083,278.9485,81.121,0,999,2168,0.0021264,0.00028653,0,4113418,0 STARLINK-30163,1 57309U 23096V   23333.73105267  .00028653  00000-0  21264-2 0  9990,2 57309  43.0037  58.0083 0001305 278.9485  81.1210 15.02555061 21689,2023-096V,57309,6937.158,95.837,559.928,558.118,1
GENERATED VIA SPACETRACK.ORG API,18 SPCS,57309,STARLINK-30163,PAYLOAD,U,23096V,2023-11-30 11:05:43,830240,15.02545242,0.0001067,43.004,54.0345,246.6895,113.3835,0,999,2179,0.0018038,0.00024253,0,4114426,0 STARLINK-30163,1 57309U 23096V   23334.46231285  .00024253  00000-0  18038-2 0  9998,2 57309  43.0040  54.0345 0001067 246.6895 113.3835 15.02545242 21795,2023-096V,57309,6937.188,95.837,559.793,558.313,1
GENERATED VIA SPACETRACK.ORG API,18 SPCS,57309,STARLINK-30163,PAYLOAD,U,23096V,2023-11-30 17:28:38,242560,15.02575648,0.0001072,43.0044,52.5896,280.2041,79.868,0,999,2183,0.0032484,0.00043999,0,4115022,0 STARLINK-30163,1 57309U 23096V   23334.72822040  .00043999  00000-0  32484-2 0  9991,2 57309  43.0044  52.5896 0001072 280.2041  79.8680 15.02575648 21838,2023-096V,57309,6937.094,95.835,559.703,558.216,1
